GOES 8
1 23051U 94022A   02033.33401840 -.00000256 +00000-0 +00000-0 0 0048
2 23051 000.3048 277.8302 0002841 020.8402 238.5592 01.0025929603598
OutputFile:20020204_MagEphem.txt
ISO Start Date/Time:2002-02-04T00:00:00
ISO End   Date/Time:2002-02-04T00:00:00
Internal Field Model:IGRF
External Field Model:T89
Kp:4.3
Dst:-20
